{
  "links" : {
    "next" : "https://api.nasa.gov/neo/rest/v1/feed?start_date=2004-11-09&end_date=2004-11-09&detailed=true&api_key=t0TVs3DtDT2H8Oy2Zy8m2eVrNsAVKAexjcZXUckd",
    "prev" : "https://api.nasa.gov/neo/rest/v1/feed?start_date=2004-11-07&end_date=2004-11-07&detailed=true&api_key=t0TVs3DtDT2H8Oy2Zy8m2eVrNsAVKAexjcZXUckd",
    "self" : "https://api.nasa.gov/neo/rest/v1/feed?start_date=2004-11-08&end_date=2004-11-08&detailed=true&api_key=t0TVs3DtDT2H8Oy2Zy8m2eVrNsAVKAexjcZXUckd"
  },
  "element_count" : 6,
  "near_earth_objects" : {
    "2004-11-08" : [ {
      "links" : {
        "self" : "https://api.nasa.gov/neo/rest/v1/neo/3261401?api_key=t0TVs3DtDT2H8Oy2Zy8m2eVrNsAVKAexjcZXUckd"
      },
      "neo_reference_id" : "3261401",
      "name" : "(2004 VZ)",
      "nasa_jpl_url" : "http://ssd.jpl.nasa.gov/sbdb.cgi?sstr=3261401",
      "absolute_magnitude_h" : 24.6,
      "estimated_diameter" : {
        "kilometers" : {
          "estimated_diameter_min" : 0.0319561887,
          "estimated_diameter_max" : 0.0714562102
        },
        "meters" : {
          "estimated_diameter_min" : 31.9561886721,
          "estimated_diameter_max" : 71.4562101727
        },
        "miles" : {
          "estimated_diameter_min" : 0.0198566489,
          "estimated_diameter_max" : 0.0444008168
        },
        "feet" : {
          "estimated_diameter_min" : 104.8431420431,
          "estimated_diameter_max" : 234.436392583
        }
      },
      "is_potentially_hazardous_asteroid" : false,
      "close_approach_data" : [ {
        "close_approach_date" : "2004-11-08",
        "epoch_date_close_approach" : 1099900800000,
        "relative_velocity" : {
          "kilometers_per_second" : "10.2882873811",
          "kilometers_per_hour" : "37037.8345718016",
          "miles_per_hour" : "23013.8700426842"
        },
        "miss_distance" : {
          "astronomical" : "0.0198054992",
          "lunar" : "7.7043390274",
          "kilometers" : "2962860.5",
          "miles" : "1841036.125"
        },
        "orbiting_body" : "Earth"
      } ],
      "orbital_data" : {
        "orbit_id" : "9",
        "orbit_determination_date" : "2017-04-06 09:11:55",
        "orbit_uncertainty" : "7",
        "minimum_orbit_intersection" : ".00398015",
        "jupiter_tisserand_invariant" : "6.323",
        "epoch_osculation" : "2458000.5",
        "eccentricity" : ".2438929945052555",
        "semi_major_axis" : ".9406831317533808",
        "inclination" : "16.20878050888338",
        "ascending_node_longitude" : "225.7771256196328",
        "orbital_period" : "333.2448614410724",
        "perihelion_distance" : ".711257105869467",
        "perihelion_argument" : "297.0989132528018",
        "aphelion_distance" : "1.170109157637295",
        "perihelion_time" : "2458066.341954660832",
        "mean_anomaly" : "288.8718104297286",
        "mean_motion" : "1.080286725032244",
        "equinox" : "J2000"
      }
    }, {
      "links" : {
        "self" : "https://api.nasa.gov/neo/rest/v1/neo/3297353?api_key=t0TVs3DtDT2H8Oy2Zy8m2eVrNsAVKAexjcZXUckd"
      },
      "neo_reference_id" : "3297353",
      "name" : "(2005 UG5)",
      "nasa_jpl_url" : "http://ssd.jpl.nasa.gov/sbdb.cgi?sstr=3297353",
      "absolute_magnitude_h" : 24.3,
      "estimated_diameter" : {
        "kilometers" : {
          "estimated_diameter_min" : 0.0366906138,
          "estimated_diameter_max" : 0.0820427065
        },
        "meters" : {
          "estimated_diameter_min" : 36.6906137531,
          "estimated_diameter_max" : 82.0427064882
        },
        "miles" : {
          "estimated_diameter_min" : 0.0227984834,
          "estimated_diameter_max" : 0.0509789586
        },
        "feet" : {
          "estimated_diameter_min" : 120.3760332259,
          "estimated_diameter_max" : 269.1689931548
        }
      },
      "is_potentially_hazardous_asteroid" : false,
      "close_approach_data" : [ {
        "close_approach_date" : "2004-11-08",
        "epoch_date_close_approach" : 1099900800000,
        "relative_velocity" : {
          "kilometers_per_second" : "17.3066219264",
          "kilometers_per_hour" : "62303.8389349374",
          "miles_per_hour" : "38713.1825871004"
        },
        "miss_distance" : {
          "astronomical" : "0.4002397699",
          "lunar" : "155.6932678223",
          "kilometers" : "59875016",
          "miles" : "37204612"
        },
        "orbiting_body" : "Earth"
      } ],
      "orbital_data" : {
        "orbit_id" : "8",
        "orbit_determination_date" : "2017-04-06 09:10:07",
        "orbit_uncertainty" : "7",
        "minimum_orbit_intersection" : ".0160737",
        "jupiter_tisserand_invariant" : "5.813",
        "epoch_osculation" : "2458000.5",
        "eccentricity" : ".1880853600027565",
        "semi_major_axis" : "1.055576307076862",
        "inclination" : "2.833541547312108",
        "ascending_node_longitude" : "35.7826270987017",
        "orbital_period" : "396.1255702813921",
        "perihelion_distance" : ".8570378573499301",
        "perihelion_argument" : "111.9445086778511",
        "aphelion_distance" : "1.254114756803794",
        "perihelion_time" : "2458133.803919784414",
        "mean_anomaly" : "238.853033677429",
        "mean_motion" : ".9088027307711293",
        "equinox" : "J2000"
      }
    }, {
      "links" : {
        "self" : "https://api.nasa.gov/neo/rest/v1/neo/3447916?api_key=t0TVs3DtDT2H8Oy2Zy8m2eVrNsAVKAexjcZXUckd"
      },
      "neo_reference_id" : "3447916",
      "name" : "(2009 DB1)",
      "nasa_jpl_url" : "http://ssd.jpl.nasa.gov/sbdb.cgi?sstr=3447916",
      "absolute_magnitude_h" : 22.9,
      "estimated_diameter" : {
        "kilometers" : {
          "estimated_diameter_min" : 0.0699125232,
          "estimated_diameter_max" : 0.1563291544
        },
        "meters" : {
          "estimated_diameter_min" : 69.9125232246,
          "estimated_diameter_max" : 156.3291544087
        },
        "miles" : {
          "estimated_diameter_min" : 0.0434416145,
          "estimated_diameter_max" : 0.097138403
        },
        "feet" : {
          "estimated_diameter_min" : 229.3718026961,
          "estimated_diameter_max" : 512.8909429502
        }
      },
      "is_potentially_hazardous_asteroid" : false,
      "close_approach_data" : [ {
        "close_approach_date" : "2004-11-08",
        "epoch_date_close_approach" : 1099900800000,
        "relative_velocity" : {
          "kilometers_per_second" : "13.062836648",
          "kilometers_per_hour" : "47026.2119329534",
          "miles_per_hour" : "29220.2592980065"
        },
        "miss_distance" : {
          "astronomical" : "0.306414449",
          "lunar" : "119.1952209473",
          "kilometers" : "45838952",
          "miles" : "28483004"
        },
        "orbiting_body" : "Earth"
      } ],
      "orbital_data" : {
        "orbit_id" : "10",
        "orbit_determination_date" : "2017-04-06 09:01:18",
        "orbit_uncertainty" : "6",
        "minimum_orbit_intersection" : ".0389591",
        "jupiter_tisserand_invariant" : "5.099",
        "epoch_osculation" : "2458000.5",
        "eccentricity" : ".4399422167149811",
        "semi_major_axis" : "1.230558754045061",
        "inclination" : "4.433979565245688",
        "ascending_node_longitude" : "167.8371241772596",
        "orbital_period" : "498.5996373556567",
        "perihelion_distance" : ".6891840079924515",
        "perihelion_argument" : "239.9432833450907",
        "aphelion_distance" : "1.77193350009767",
        "perihelion_time" : "2457802.535085243676",
        "mean_anomaly" : "142.9350604630321",
        "mean_motion" : ".7220221857947482",
        "equinox" : "J2000"
      }
    } ]
  }
}